[{"OBJECT_NAME":"HAIYANG-2A","OBJECT_ID":"2011-043A","EPOCH":"2026-03-10T00:07:18.637248","MEAN_MOTION":13.78270863,"ECCENTRICITY":0.00014304,"INCLINATION":99.3421,"RA_OF_ASC_NODE":73.6029,"ARG_OF_PERICENTER":273.3888,"MEAN_ANOMALY":86.7099,"EPHEMERIS_TYPE":0,"CLASSIFICATION_TYPE":"U","NORAD_CAT_ID":37781,"ELEMENT_SET_NO":999,"REV_AT_EPOCH":73301,"BSTAR":-0.00021809434,"MEAN_MOTION_DOT":-2.64e-6,"MEAN_MOTION_DDOT":0},{"OBJECT_NAME":"SL-8 R\/B","OBJECT_ID":"1980-039B","EPOCH":"2026-03-09T22:11:15.114336","MEAN_MOTION":13.76576676,"ECCENTRICITY":0.00200785,"INCLINATION":82.9388,"RA_OF_ASC_NODE":244.5875,"ARG_OF_PERICENTER":329.2925,"MEAN_ANOMALY":30.7056,"EPHEMERIS_TYPE":0,"CLASSIFICATION_TYPE":"U","NORAD_CAT_ID":11804,"ELEMENT_SET_NO":999,"REV_AT_EPOCH":29960,"BSTAR":-2.4337823e-5,"MEAN_MOTION_DOT":-9.0e-8,"MEAN_MOTION_DDOT":0}]
